[{"OBJECT_NAME":"GEESAT-5 01","OBJECT_ID":"2025-201A","EPOCH":"2026-03-09T16:09:44.414208","MEAN_MOTION":14.83771108,"ECCENTRICITY":0.00031214,"INCLINATION":49.9903,"RA_OF_ASC_NODE":141.1054,"ARG_OF_PERICENTER":18.6634,"MEAN_ANOMALY":341.4418,"EPHEMERIS_TYPE":0,"CLASSIFICATION_TYPE":"U","NORAD_CAT_ID":65550,"ELEMENT_SET_NO":999,"REV_AT_EPOCH":2702,"BSTAR":0.00034504263,"MEAN_MOTION_DOT":2.662e-5,"MEAN_MOTION_DDOT":0},{"OBJECT_NAME":"SL-14 R\/B","OBJECT_ID":"1990-010B","EPOCH":"2026-03-09T14:52:00.601824","MEAN_MOTION":14.83568711,"ECCENTRICITY":0.0018538,"INCLINATION":82.4987,"RA_OF_ASC_NODE":267.4549,"ARG_OF_PERICENTER":302.6174,"MEAN_ANOMALY":57.3252,"EPHEMERIS_TYPE":0,"CLASSIFICATION_TYPE":"U","NORAD_CAT_ID":20466,"ELEMENT_SET_NO":999,"REV_AT_EPOCH":92847,"BSTAR":6.0041e-5,"MEAN_MOTION_DOT":5.19e-6,"MEAN_MOTION_DDOT":0}]
